ALOS (DAICHI)           
1 28931U 06002A   25344.31220904  .00002314  00000+0  39870-3 0  9999
2 28931  98.1091 295.8165 0001041 113.2566 246.8749 14.69475629 60356
H-2A R/B                
1 28932U 06002B   25344.27476949  .00016519  00000+0  86769-3 0  9998
2 28932  98.2316 118.8219 0054521 184.7889 175.2827 15.14488138 80897
RESURS-DK 1             
1 29228U 06021A   25344.31668432  .00004087  00000+0  24254-3 0  9991
2 29228  69.9335 108.1000 0007488 261.6043  98.4274 15.12139478 74016
CZ-4B R/B               
1 29507U 06046C   25344.12865498  .00007637  00000+0  39756-3 0  9995
2 29507  97.5735  24.2736 0033100 215.8149 144.0864 15.15828586 46479
CZ-2C R/B               
1 31114U 07010B   25344.32331623  .00000306  00000+0  15989-3 0  9992
2 31114  98.3974  97.0958 0058842 193.0355 166.9304 14.20208560967035
COSMO-SKYMED 1          
1 31598U 07023A   25344.31297888  .00005595  00000+0  50734-3 0  9997
2 31598  97.8835 169.6965 0001056  85.0865 275.0476 14.95734223  1545
COSMOS 2428             
1 31792U 07029A   25344.26044386  .00000106  00000+0  82467-4 0  9998
2 31792  70.9369  31.0856 0003521  27.3154 332.8151 14.12888910951464
SL-16 R/B               
1 31793U 07029B   25344.32908297 -.00000145  00000+0 -50090-4 0  9998
2 31793  70.9758   0.2256 0002267 263.2955 107.7866 14.14814741952731
KORONAS-FOTON           
1 33504U 09003A   25344.15727303  .00017950  00000+0  43156-3 0  9996
2 33504  82.4313   8.7814 0013107 116.4927 243.7666 15.41093482931945
CZ-2C R/B               
1 37731U 11030B   25344.24311993  .00002665  00000+0  34414-3 0  9993
2 37731  97.8413 298.4049 0051402 281.9874 215.1270 14.80889169776857
H-2A R/B                
1 38341U 12025E   25344.16236287  .00005527  00000+0  50961-3 0  9994
2 38341  98.4599 299.1936 0043623 244.7666 114.9027 14.94422718734849
SHIJIAN-16 (SJ-16)      
1 39358U 13057A   25344.32242250  .00001603  00000+0  16070-3 0  9998
2 39358  74.9729 354.2292 0017503 325.3825  34.6222 14.91973552658171
