CCSDS_OMM_VERS = 2.0
CREATION_DATE  = 
ORIGINATOR     = 

OBJECT_NAME    = ALOS (DAICHI)
OBJECT_ID      = 2006-002A
CENTER_NAME    = EARTH
REF_FRAME      = TEME
TIME_SYSTEM    = UTC
MEAN_ELEMENT_THEORY = SGP/SGP4

EPOCH          = 2025-12-10T07:29:34.861056
MEAN_MOTION    = 14.69475629
ECCENTRICITY   = .00010412
INCLINATION    = 98.1091
RA_OF_ASC_NODE = 295.8165
ARG_OF_PERICENTER = 113.2566
MEAN_ANOMALY   = 246.8749

EPHEMERIS_TYPE = 0
CLASSIFICATION_TYPE = U
NORAD_CAT_ID   = 28931
ELEMENT_SET_NO = 999
REV_AT_EPOCH   = 6035
BSTAR          = .39870192E-3
MEAN_MOTION_DOT = .2314E-4
MEAN_MOTION_DDOT = 0

CCSDS_OMM_VERS = 2.0
CREATION_DATE  = 
ORIGINATOR     = 

OBJECT_NAME    = H-2A R/B
OBJECT_ID      = 2006-002B
CENTER_NAME    = EARTH
REF_FRAME      = TEME
TIME_SYSTEM    = UTC
MEAN_ELEMENT_THEORY = SGP/SGP4

EPOCH          = 2025-12-10T06:35:40.083936
MEAN_MOTION    = 15.14488138
ECCENTRICITY   = .00545214
INCLINATION    = 98.2316
RA_OF_ASC_NODE = 118.8219
ARG_OF_PERICENTER = 184.7889
MEAN_ANOMALY   = 175.2827

EPHEMERIS_TYPE = 0
CLASSIFICATION_TYPE = U
NORAD_CAT_ID   = 28932
ELEMENT_SET_NO = 999
REV_AT_EPOCH   = 8089
BSTAR          = .8676896E-3
MEAN_MOTION_DOT = .16519E-3
MEAN_MOTION_DDOT = 0

CCSDS_OMM_VERS = 2.0
CREATION_DATE  = 
ORIGINATOR     = 

OBJECT_NAME    = RESURS-DK 1
OBJECT_ID      = 2006-021A
CENTER_NAME    = EARTH
REF_FRAME      = TEME
TIME_SYSTEM    = UTC
MEAN_ELEMENT_THEORY = SGP/SGP4

EPOCH          = 2025-12-10T07:36:01.525248
MEAN_MOTION    = 15.12139478
ECCENTRICITY   = .00074883
INCLINATION    = 69.9335
RA_OF_ASC_NODE = 108.1000
ARG_OF_PERICENTER = 261.6043
MEAN_ANOMALY   = 98.4274

EPHEMERIS_TYPE = 0
CLASSIFICATION_TYPE = U
NORAD_CAT_ID   = 29228
ELEMENT_SET_NO = 999
REV_AT_EPOCH   = 7401
BSTAR          = .2425432E-3
MEAN_MOTION_DOT = .4087E-4
MEAN_MOTION_DDOT = 0

CCSDS_OMM_VERS = 2.0
CREATION_DATE  = 
ORIGINATOR     = 

OBJECT_NAME    = CZ-4B R/B
OBJECT_ID      = 2006-046C
CENTER_NAME    = EARTH
REF_FRAME      = TEME
TIME_SYSTEM    = UTC
MEAN_ELEMENT_THEORY = SGP/SGP4

EPOCH          = 2025-12-10T03:05:15.790272
MEAN_MOTION    = 15.15828586
ECCENTRICITY   = .00331009
INCLINATION    = 97.5735
RA_OF_ASC_NODE = 24.2736
ARG_OF_PERICENTER = 215.8149
MEAN_ANOMALY   = 144.0864

EPHEMERIS_TYPE = 0
CLASSIFICATION_TYPE = U
NORAD_CAT_ID   = 29507
ELEMENT_SET_NO = 999
REV_AT_EPOCH   = 4647
BSTAR          = .39756343E-3
MEAN_MOTION_DOT = .7637E-4
MEAN_MOTION_DDOT = 0

CCSDS_OMM_VERS = 2.0
CREATION_DATE  = 
ORIGINATOR     = 

OBJECT_NAME    = CZ-2C R/B
OBJECT_ID      = 2007-010B
CENTER_NAME    = EARTH
REF_FRAME      = TEME
TIME_SYSTEM    = UTC
MEAN_ELEMENT_THEORY = SGP/SGP4

EPOCH          = 2025-12-10T07:45:34.522272
MEAN_MOTION    = 14.20208560
ECCENTRICITY   = .00588426
INCLINATION    = 98.3974
RA_OF_ASC_NODE = 97.0958
ARG_OF_PERICENTER = 193.0355
MEAN_ANOMALY   = 166.9304

EPHEMERIS_TYPE = 0
CLASSIFICATION_TYPE = U
NORAD_CAT_ID   = 31114
ELEMENT_SET_NO = 999
REV_AT_EPOCH   = 96703
BSTAR          = .15988841E-3
MEAN_MOTION_DOT = .306E-5
MEAN_MOTION_DDOT = 0

CCSDS_OMM_VERS = 2.0
CREATION_DATE  = 
ORIGINATOR     = 

OBJECT_NAME    = COSMO-SKYMED 1
OBJECT_ID      = 2007-023A
CENTER_NAME    = EARTH
REF_FRAME      = TEME
TIME_SYSTEM    = UTC
MEAN_ELEMENT_THEORY = SGP/SGP4

EPOCH          = 2025-12-10T07:30:41.375232
MEAN_MOTION    = 14.95734223
ECCENTRICITY   = .00010569
INCLINATION    = 97.8835
RA_OF_ASC_NODE = 169.6965
ARG_OF_PERICENTER = 85.0865
MEAN_ANOMALY   = 275.0476

EPHEMERIS_TYPE = 0
CLASSIFICATION_TYPE = U
NORAD_CAT_ID   = 31598
ELEMENT_SET_NO = 999
REV_AT_EPOCH   = 154
BSTAR          = .50733848E-3
MEAN_MOTION_DOT = .5595E-4
MEAN_MOTION_DDOT = 0

CCSDS_OMM_VERS = 2.0
CREATION_DATE  = 
ORIGINATOR     = 

OBJECT_NAME    = COSMOS 2428
OBJECT_ID      = 2007-029A
CENTER_NAME    = EARTH
REF_FRAME      = TEME
TIME_SYSTEM    = UTC
MEAN_ELEMENT_THEORY = SGP/SGP4

EPOCH          = 2025-12-10T06:15:02.349504
MEAN_MOTION    = 14.12888910
ECCENTRICITY   = .00035212
INCLINATION    = 70.9369
RA_OF_ASC_NODE = 31.0856
ARG_OF_PERICENTER = 27.3154
MEAN_ANOMALY   = 332.8151

EPHEMERIS_TYPE = 0
CLASSIFICATION_TYPE = U
NORAD_CAT_ID   = 31792
ELEMENT_SET_NO = 999
REV_AT_EPOCH   = 95146
BSTAR          = .82466777E-4
MEAN_MOTION_DOT = .106E-5
MEAN_MOTION_DDOT = 0

CCSDS_OMM_VERS = 2.0
CREATION_DATE  = 
ORIGINATOR     = 

OBJECT_NAME    = SL-16 R/B
OBJECT_ID      = 2007-029B
CENTER_NAME    = EARTH
REF_FRAME      = TEME
TIME_SYSTEM    = UTC
MEAN_ELEMENT_THEORY = SGP/SGP4

EPOCH          = 2025-12-10T07:53:52.768608
MEAN_MOTION    = 14.14814741
ECCENTRICITY   = .00022671
INCLINATION    = 70.9758
RA_OF_ASC_NODE = 0.2256
ARG_OF_PERICENTER = 263.2955
MEAN_ANOMALY   = 107.7866

EPHEMERIS_TYPE = 0
CLASSIFICATION_TYPE = U
NORAD_CAT_ID   = 31793
ELEMENT_SET_NO = 999
REV_AT_EPOCH   = 95273
BSTAR          = -.50090169E-4
MEAN_MOTION_DOT = -.145E-5
MEAN_MOTION_DDOT = 0

CCSDS_OMM_VERS = 2.0
CREATION_DATE  = 
ORIGINATOR     = 

OBJECT_NAME    = KORONAS-FOTON
OBJECT_ID      = 2009-003A
CENTER_NAME    = EARTH
REF_FRAME      = TEME
TIME_SYSTEM    = UTC
MEAN_ELEMENT_THEORY = SGP/SGP4

EPOCH          = 2025-12-10T03:46:28.389792
MEAN_MOTION    = 15.41093482
ECCENTRICITY   = .00131075
INCLINATION    = 82.4313
RA_OF_ASC_NODE = 8.7814
ARG_OF_PERICENTER = 116.4927
MEAN_ANOMALY   = 243.7666

EPHEMERIS_TYPE = 0
CLASSIFICATION_TYPE = U
NORAD_CAT_ID   = 33504
ELEMENT_SET_NO = 999
REV_AT_EPOCH   = 93194
BSTAR          = .43156021E-3
MEAN_MOTION_DOT = .1795E-3
MEAN_MOTION_DDOT = 0

CCSDS_OMM_VERS = 2.0
CREATION_DATE  = 
ORIGINATOR     = 

OBJECT_NAME    = CZ-2C R/B
OBJECT_ID      = 2011-030B
CENTER_NAME    = EARTH
REF_FRAME      = TEME
TIME_SYSTEM    = UTC
MEAN_ELEMENT_THEORY = SGP/SGP4

EPOCH          = 2025-12-10T05:50:05.561952
MEAN_MOTION    = 14.80889169
ECCENTRICITY   = .00514026
INCLINATION    = 97.8413
RA_OF_ASC_NODE = 298.4049
ARG_OF_PERICENTER = 281.9874
MEAN_ANOMALY   = 215.1270

EPHEMERIS_TYPE = 0
CLASSIFICATION_TYPE = U
NORAD_CAT_ID   = 37731
ELEMENT_SET_NO = 999
REV_AT_EPOCH   = 77685
BSTAR          = .34413921E-3
MEAN_MOTION_DOT = .2665E-4
MEAN_MOTION_DDOT = 0

CCSDS_OMM_VERS = 2.0
CREATION_DATE  = 
ORIGINATOR     = 

OBJECT_NAME    = H-2A R/B
OBJECT_ID      = 2012-025E
CENTER_NAME    = EARTH
REF_FRAME      = TEME
TIME_SYSTEM    = UTC
MEAN_ELEMENT_THEORY = SGP/SGP4

EPOCH          = 2025-12-10T03:53:48.151968
MEAN_MOTION    = 14.94422718
ECCENTRICITY   = .0043623
INCLINATION    = 98.4599
RA_OF_ASC_NODE = 299.1936
ARG_OF_PERICENTER = 244.7666
MEAN_ANOMALY   = 114.9027

EPHEMERIS_TYPE = 0
CLASSIFICATION_TYPE = U
NORAD_CAT_ID   = 38341
ELEMENT_SET_NO = 999
REV_AT_EPOCH   = 73484
BSTAR          = .50961189E-3
MEAN_MOTION_DOT = .5527E-4
MEAN_MOTION_DDOT = 0

CCSDS_OMM_VERS = 2.0
CREATION_DATE  = 
ORIGINATOR     = 

OBJECT_NAME    = SHIJIAN-16 (SJ-16)
OBJECT_ID      = 2013-057A
CENTER_NAME    = EARTH
REF_FRAME      = TEME
TIME_SYSTEM    = UTC
MEAN_ELEMENT_THEORY = SGP/SGP4

EPOCH          = 2025-12-10T07:44:17.304000
MEAN_MOTION    = 14.91973552
ECCENTRICITY   = .0017503
INCLINATION    = 74.9729
RA_OF_ASC_NODE = 354.2292
ARG_OF_PERICENTER = 325.3825
MEAN_ANOMALY   = 34.6222

EPHEMERIS_TYPE = 0
CLASSIFICATION_TYPE = U
NORAD_CAT_ID   = 39358
ELEMENT_SET_NO = 999
REV_AT_EPOCH   = 65817
BSTAR          = .16069779E-3
MEAN_MOTION_DOT = .1603E-4
MEAN_MOTION_DDOT = 0

